[{"OBJECT_NAME":"TEVEL2-3","OBJECT_ID":"2025-052J","EPOCH":"2026-03-09T15:29:22.754400","MEAN_MOTION":15.30377031,"ECCENTRICITY":0.0004761,"INCLINATION":97.3994,"RA_OF_ASC_NODE":324.7775,"ARG_OF_PERICENTER":105.7353,"MEAN_ANOMALY":254.4413,"EPHEMERIS_TYPE":0,"CLASSIFICATION_TYPE":"U","NORAD_CAT_ID":63218,"ELEMENT_SET_NO":999,"REV_AT_EPOCH":5485,"BSTAR":0.00069446,"MEAN_MOTION_DOT":0.00020365,"MEAN_MOTION_DDOT":0},{"OBJECT_NAME":"STARLINK-34797","OBJECT_ID":"2025-190N","EPOCH":"2026-03-09T13:20:57.311232","MEAN_MOTION":15.30177206,"ECCENTRICITY":0.0001077,"INCLINATION":53.1581,"RA_OF_ASC_NODE":168.8777,"ARG_OF_PERICENTER":81.7287,"MEAN_ANOMALY":278.3835,"EPHEMERIS_TYPE":0,"CLASSIFICATION_TYPE":"U","NORAD_CAT_ID":65363,"ELEMENT_SET_NO":999,"REV_AT_EPOCH":2973,"BSTAR":0.00093574,"MEAN_MOTION_DOT":0.00027437,"MEAN_MOTION_DDOT":0}]
