TEVEL2-3                
1 63218U 25052J   26068.64540225  .00020365  00000+0  69446-3 0  9991
2 63218  97.3994 324.7775 0004761 105.7353 254.4413 15.30377031 54855
STARLINK-34797          
1 65363U 25190N   26068.55621888  .00027437  00000+0  93574-3 0  9998
2 65363  53.1581 168.8777 0001077  81.7287 278.3835 15.30177206 29739
